IRIDIUM 150             
1 43257U 18030J   25362.49434332  .00000320  00000+0  10719-3 0  9998
2 43257  86.3967   1.8206 0002330  89.2300 270.9163 14.34216519405697
IRIDIUM 143             
1 43258U 18030K   25362.40554331  .00000107  00000+0  31117-4 0  9991
2 43258  86.3971   1.9435 0002475  88.5727 271.5753 14.34215733405614
IRIDIUM 161             
1 43478U 18047C   25362.40713072  .00000520  00000+0  14871-3 0  9998
2 43478  86.4515 159.8380 0001795  92.6868 267.4539 14.43283390400504
IRIDIUM 152             
1 43479U 18047D   25362.51780836  .00000455  00000+0  15556-3 0  9991
2 43479  86.3992 159.6526 0001888  95.5203 264.6208 14.34216156398022
IRIDIUM 147             
1 43480U 18047E   25362.45437625  .00000380  00000+0  12849-3 0  9990
2 43480  86.3994 159.6813 0002067  90.0614 270.0818 14.34212956398012
IRIDIUM 110             
1 43481U 18047F   25362.46071888  .00000474  00000+0  16217-3 0  9994
2 43481  86.3996 159.7654 0001512  96.3824 263.7544 14.34218564398000
IRIDIUM 162             
1 43482U 18047G   25362.47016098  .00000536  00000+0  15333-3 0  9995
2 43482  86.4513 159.7049 0002095 102.2599 257.8837 14.43285567400503
IRIDIUM 160             
1 43569U 18061A   25361.84840794 -.00000089  00000+0 -38970-4 0  9993
2 43569  86.3993 128.4416 0001690  92.4034 267.7355 14.34216976388817
